H1 CPF 01  gfz 2021 02 04 01  5351 terrasarx 
H2 0702601  6201 31698    2021 02 04 00 59 42 2021 02 09 00 00 42   120 1 1  0 0 0
H9
10 0 59249  69822.000000  0    2401781.886  -1769153.591   6198740.668
10 0 59249  69942.000000  0    1575205.392  -1522176.102   6520328.902
10 0 59249  70062.000000  0     725825.670  -1233968.348   6727320.687
10 0 59249  70182.000000  0    -130852.590   -909300.918   6816102.029
10 0 59249  70302.000000  0    -979295.034   -553848.126   6785123.104
10 0 59249  70422.000000  0   -1804217.869   -174089.029   6634923.212
10 0 59249  70542.000000  0   -2590861.818    222810.253   6368122.071
10 0 59249  70662.000000  0   -3325255.787    629130.821   5989377.815
10 0 59249  70782.000000  0   -3994466.951   1036749.546   5505311.484
10 0 59249  70902.000000  0   -4586833.444   1437299.581   4924397.653
10 0 59249  71022.000000  0   -5092174.324   1822340.823   4256821.728
10 0 59249  71142.000000  0   -5501972.688   2183536.538   3514305.302
10 0 59249  71262.000000  0   -5809527.103   2512832.047   2709902.436
10 0 59249  71382.000000  0   -6010069.236   2802631.848   1857770.330
10 0 59249  71502.000000  0   -6100844.820   3045971.214    972916.941
10 0 59249  71622.000000  0   -6081153.688   3236677.455     70929.318
10 0 59249  71742.000000  0   -5952347.497   3369516.234   -832309.143
10 0 59249  71862.000000  0   -5717786.707   3440319.165  -1720907.166
10 0 59249  71982.000000  0   -5382757.240   3446090.285  -2579254.681
10 0 59249  72102.000000  0   -4954347.077   3385087.371  -3392304.151
10 0 59249  72222.000000  0   -4441289.055   3256877.105  -4145837.913
10 0 59249  72342.000000  0   -3853773.693   3062362.822  -4826715.619
10 0 59249  72462.000000  0   -3203238.313   2803785.143  -5423098.424
10 0 59249  72582.000000  0   -2502138.339   2484696.210  -5924645.625
10 0 59249  72702.000000  0   -1763705.225   2109909.088  -6322684.728
10 0 59249  72822.000000  0   -1001694.262   1685421.869  -6610349.713
10 0 59249  72942.000000  0    -230130.669   1218320.143  -6782687.745
10 0 59249  73062.000000  0     536943.690    716658.809  -6836734.929
10 0 59249  73182.000000  0    1285719.078    189325.967  -6771563.023
10 0 59249  73302.000000  0    2002862.069   -354111.564  -6588293.933
10 0 59249  73422.000000  0    2675747.067   -903577.355  -6290081.529
10 0 59249  73542.000000  0    3292675.251  -1448667.356  -5882063.580
10 0 59249  73662.000000  0    3843076.403  -1978841.547  -5371282.130
10 0 59249  73782.000000  0    4317692.945  -2483624.894  -4766574.012
10 0 59249  73902.000000  0    4708740.653  -2952813.549  -4078428.335
10 0 59249  74022.000000  0    5010042.685  -3376680.836  -3318814.558
10 0 59249  74142.000000  0    5217135.832  -3746179.655  -2500982.496
10 0 59249  74262.000000  0    5327345.101  -4053136.974  -1639235.145
10 0 59249  74382.000000  0    5339823.327  -4290435.019   -748679.097
10 0 59249  74502.000000  0    5255555.021  -4452175.187    155043.460
10 0 59249  74622.000000  0    5077323.111  -4533820.268   1056036.023
10 0 59249  74742.000000  0    4809638.078  -4532309.193   1938436.323
10 0 59249  74862.000000  0    4458632.222  -4446141.888   2786704.501
10 0 59249  74982.000000  0    4031922.290  -4275432.046   3585904.385
10 0 59249  75102.000000  0    3538443.501  -4021927.837   4321972.713
10 0 59249  75222.000000  0    2988258.371  -3688998.686   4981970.544
10 0 59249  75342.000000  0    2392347.020  -3281588.629   5554310.723
10 0 59249  75462.000000  0    1762383.858  -2806139.109   6028959.609
10 0 59249  75582.000000  0    1110504.432  -2270481.695   6397607.995
10 0 59249  75702.000000  0     449069.310  -1683705.070   6653810.224
10 0 59249  75822.000000  0    -209571.409  -1055998.082   6793090.772
10 0 59249  75942.000000  0    -853307.980   -398470.864   6813017.574
10 0 59249  76062.000000  0   -1470492.534    277042.093   6713241.453
10 0 59249  76182.000000  0   -2050149.074    958194.424   6495501.904
10 0 59249  76302.000000  0   -2582168.422   1632352.616   6163598.766
10 0 59249  76422.000000  0   -3057485.344   2286829.455   5723330.231
10 0 59249  76542.000000  0   -3468235.504   2909123.332   5182398.227
10 0 59249  76662.000000  0   -3807889.838   3487159.186   4550279.727
10 0 59249  76782.000000  0   -4071363.117   4009526.028   3838066.113
10 0 59249  76902.000000  0   -4255094.390   4465707.358   3058272.360
10 0 59249  77022.000000  0   -4357097.090   4846298.597   2224617.366
10 0 59249  77142.000000  0   -4376976.303   5143205.370   1351779.648
10 0 59249  77262.000000  0   -4315914.367   5349817.757    455134.035
10 0 59249  77382.000000  0   -4176625.072   5461157.222   -449525.893
10 0 59249  77502.000000  0   -3963275.694   5473992.524  -1346275.896
10 0 59249  77622.000000  0   -3681378.528   5386917.494  -2219352.100
10 0 59249  77742.000000  0   -3337655.415   5200392.358  -3053435.048
10 0 59249  77862.000000  0   -2939879.998   4916747.165  -3833923.822
10 0 59249  77982.000000  0   -2496702.007   4540146.637  -4547192.116
10 0 59249  78102.000000  0   -2017458.235   4076520.203  -5180821.986
10 0 59249  78222.000000  0   -1511975.906   3533460.801  -5723812.310
10 0 59249  78342.000000  0    -990371.853   2920092.997  -6166761.666
10 0 59249  78462.000000  0    -462851.104   2246912.704  -6502020.640
10 0 59249  78582.000000  0      60489.989   1525604.184  -6723811.799
10 0 59249  78702.000000  0     569852.134    768837.417  -6828319.384
10 0 59249  78822.000000  0    1055912.308     -9951.137  -6813748.559
10 0 59249  78942.000000  0    1509990.651   -796792.942  -6680352.380
10 0 59249  79062.000000  0    1924201.139  -1577431.799  -6430426.397
10 0 59249  79182.000000  0    2291585.919  -2337575.194  -6068273.681
10 0 59249  79302.000000  0    2606231.401  -3063150.135  -5600139.539
10 0 59249  79422.000000  0    2863365.104  -3740562.710  -5034115.816
10 0 59249  79542.000000  0    3059430.245  -4356954.367  -4380010.068
10 0 59249  79662.000000  0    3192135.624  -4900447.429  -3649185.519
10 0 59249  79782.000000  0    3260482.180  -5360379.812  -2854374.504
10 0 59249  79902.000000  0    3264764.002  -5727523.614  -2009462.650
10 0 59249  80022.000000  0    3206543.142  -5994278.678  -1129248.120
10 0 59249  80142.000000  0    3088598.377  -6154838.459   -229180.526
10 0 59249  80262.000000  0    2914847.589  -6205321.208    674916.564
10 0 59249  80382.000000  0    2690246.489  -6143863.530   1567130.523
10 0 59249  80502.000000  0    2420666.625  -5970674.724   2431749.777
10 0 59249  80622.000000  0    2112753.815  -5688046.479   3253549.715
10 0 59249  80742.000000  0    1773772.495  -5300321.109   4018066.619
10 0 59249  80862.000000  0    1411439.622  -4813820.228   4711856.376
10 0 59249  80982.000000  0    1033753.323  -4236734.422   5322732.469
10 0 59249  81102.000000  0     648818.676  -3578977.000   5839980.566
10 0 59249  81222.000000  0     264675.053  -2852003.310   6254542.152
10 0 59249  81342.000000  0    -110869.856  -2068604.176   6559166.016
10 0 59249  81462.000000  0    -470396.412  -1242677.082   6748528.396
10 0 59249  81582.000000  0    -807017.903   -388978.045   6819321.570
10 0 59249  81702.000000  0   -1114511.243    477143.244   6770308.628
10 0 59249  81822.000000  0   -1387431.520   1340019.271   6602343.451
10 0 59249  81942.000000  0   -1621208.103   2183947.228   6318356.613
10 0 59249  82062.000000  0   -1812221.689   2993474.379   5923307.690
10 0 59249  82182.000000  0   -1957860.656   3753682.017   5424103.418
10 0 59249  82302.000000  0   -2056555.739   4450463.229   4829483.778
10 0 59249  82422.000000  0   -2107793.306   5070790.995   4149875.220
10 0 59249  82542.000000  0   -2112105.654   5602969.791   3397212.077
10 0 59249  82662.000000  0   -2071039.193   6036865.008   2584728.366
10 0 59249  82782.000000  0   -1987100.640   6364104.525   1726724.051
10 0 59249  82902.000000  0   -1863681.955   6578248.422    838309.354
10 0 59249  83022.000000  0   -1704965.689   6674921.519    -64867.545
10 0 59249  83142.000000  0   -1515814.003   6651905.742   -966904.032
10 0 59249  83262.000000  0   -1301643.100   6509189.939  -1851934.053
10 0 59249  83382.000000  0   -1068285.901   6248970.247  -2704417.599
10 0 59249  83502.000000  0    -821848.757   5875606.115  -3509417.800
10 0 59249  83622.000000  0    -568565.146   5395536.787  -4252863.621
10 0 59249  83742.000000  0    -314650.028   4817158.281  -4921794.655
10 0 59249  83862.000000  0     -66157.826   4150664.875  -5504581.824
10 0 59249  83982.000000  0     171152.940   3407859.269  -5991122.241
10 0 59249  84102.000000  0     391944.969   2601934.719  -6373004.313
10 0 59249  84222.000000  0     591414.452   1747235.908  -6643641.109
10 0 59249  84342.000000  0     765389.616    859003.777  -6798373.425
10 0 59249  84462.000000  0     910413.252    -46893.525  -6834541.607
10 0 59249  84582.000000  0    1023808.305   -954239.171  -6751526.134
10 0 59249  84702.000000  0    1103725.455  -1846751.130  -6550755.278
10 0 59249  84822.000000  0    1149172.653  -2708365.674  -6235682.919
10 0 59249  84942.000000  0    1160026.851  -3523520.582  -5811737.801
10 0 59249  85062.000000  0    1137025.691  -4277435.409  -5286239.830
10 0 59249  85182.000000  0    1081741.023  -4956380.015  -4668283.445
10 0 59249  85302.000000  0     996534.161  -5547928.928  -3968592.149
10 0 59249  85422.000000  0     884492.550  -6041197.528  -3199342.119
10 0 59249  85542.000000  0     749349.706  -6427052.945  -2373957.386
10 0 59249  85662.000000  0     595390.127  -6698295.822  -1506879.663
10 0 59249  85782.000000  0     427340.511  -6849807.293   -613314.947
10 0 59249  85902.000000  0     250249.817  -6878655.614    291037.283
10 0 59249  86022.000000  0      69361.416  -6784160.364   1190266.009
10 0 59249  86142.000000  0    -110019.471  -6567912.563   2068536.885
10 0 59249  86262.000000  0    -282659.824  -6233748.686   2910380.961
99
